2025-292G               
1 66999U 25292G   25345.87534528  .00001612  00000+0  11819-3 0  9992
2 66999  97.6571  58.4362 0014449 282.8480  77.1132 15.04867239   262
2025-292H               
1 67000U 25292H   25345.87535260  .00003225  00000+0  23206-3 0  9995
2 67000  97.6576  58.4335 0014339 283.4517  76.5111 15.04864273   138
2025-292J               
1 67001U 25292J   25347.00680821  .00008947  00000+0  64498-3 0  9991
2 67001  97.6570  59.5551 0014337 267.9179  92.0405 15.04305175   437
ZK-1A R/B               
1 67002U 25292K   25346.98104825  .00208383  13310-4  10305-2 0  9999
2 67002  97.7240  59.7794 0220241   5.1197 355.2233 15.54614180   436
HULIANWANG DIGUI 16A    
1 67059U 25295A   25346.21281652 -.00000152  00000+0  34347-5 0  9991
2 67059  50.0035  14.4753 0013628 247.7813 112.1656 14.25879966    41
HULIANWANG DIGUI 16B    
1 67060U 25295B   25346.21279478 -.00000150  00000+0  43989-5 0  9996
2 67060  50.0012  14.4776 0013423 244.6732 115.2792 14.26022254    48
HULIANWANG DIGUI 16D    
1 67062U 25295D   25346.21278330 -.00000151  00000+0  37539-5 0  9999
2 67062  50.0052  14.4731 0012497 251.2247 108.7311 14.25916921    46
HULIANWANG DIGUI 16F    
1 67064U 25295F   25346.21275943 -.00000096  00000+0  26252-4 0  9995
2 67064  50.0027  14.4596 0014902 247.8107 112.1227 14.26957674    44
HULIANWANG DIGUI 16H    
1 67066U 25295H   25346.21273250 -.00000101  00000+0  24354-4 0  9994
2 67066  50.0029  14.4606 0011490 248.6611 111.3077 14.26429655    45
HULIANWANG DIGUI 16J    
1 67067U 25295J   25346.21271476 -.00000145  00000+0  64760-5 0  9997
2 67067  50.0044  14.4694 0010490 253.0387 106.9378 14.26361638    49
